{
  "type": "FeatureCollection",
  "features": [
    {
      "type": "Feature",
      "properties": {
        "norad_id": 34648,
        "name": "IRIDIUM 33 DEB",
        "group": "iridium-33-debris",
        "lat": -0.19293110823935183,
        "lon": 96.32605570630376,
        "alt_km": 820.3843283870892,
        "timestamp": "2025-12-26T16:33:55.955955+00:00",
        "meta_object_name": "IRIDIUM 33 DEB",
        "meta_object_id": "1997-051JZ",
        "meta_epoch": "2025-12-24T12:40:05.266272",
        "meta_mean_motion": 14.11825085,
        "meta_eccentricity": 0.01786115,
        "meta_inclination": 86.3902,
        "meta_ra_of_asc_node": 277.1873,
        "meta_arg_of_pericenter": 261.8681,
        "meta_mean_anomaly": 96.2208,
        "meta_ephemeris_type": 0,
        "meta_classification_type": "U",
        "meta_norad_cat_id": 34648,
        "meta_element_set_no": 999,
        "meta_rev_at_epoch": 85127,
        "meta_bstar": 0.0070051894,
        "meta_mean_motion_dot": 0.00014884,
        "meta_mean_motion_ddot": 0,
        "tle_line1": "1 34648U 97051JZ  25358.52783873  .00014884  00000+0  70052-2 0  9993",
        "tle_line2": "2 34648  86.3902 277.1873 0178611 261.8681  96.2208 14.11825085851271"
      },
      "geometry": {
        "type": "Point",
        "coordinates": [
          96.32605570630376,
          -0.19293110823935183
        ]
      }
    },
    {
      "type": "Feature",
      "properties": {
        "norad_id": 34651,
        "name": "IRIDIUM 33 DEB",
        "group": "iridium-33-debris",
        "lat": -54.98117207955062,
        "lon": -40.03428387718208,
        "alt_km": 784.6835280991772,
        "timestamp": "2025-12-26T16:33:55.955975+00:00",
        "meta_object_name": "IRIDIUM 33 DEB",
        "meta_object_id": "1997-051KC",
        "meta_epoch": "2025-12-25T15:53:57.959232",
        "meta_mean_motion": 14.26027654,
        "meta_eccentricity": 0.0142018,
        "meta_inclination": 86.2827,
        "meta_ra_of_asc_node": 135.0795,
        "meta_arg_of_pericenter": 163.1805,
        "meta_mean_anomaly": 197.4168,
        "meta_ephemeris_type": 0,
        "meta_classification_type": "U",
        "meta_norad_cat_id": 34651,
        "meta_element_set_no": 999,
        "meta_rev_at_epoch": 86080,
        "meta_bstar": 0.0036817,
        "meta_mean_motion_dot": 9.797e-05,
        "meta_mean_motion_ddot": 0,
        "tle_line1": "1 34651U 97051KC  25359.66247638  .00009797  00000+0  36817-2 0  9995",
        "tle_line2": "2 34651  86.2827 135.0795 0142018 163.1805 197.4168 14.26027654860809"
      },
      "geometry": {
        "type": "Point",
        "coordinates": [
          -40.03428387718208,
          -54.98117207955062
        ]
      }
    },
    {
      "type": "Feature",
      "properties": {
        "norad_id": 34652,
        "name": "IRIDIUM 33 DEB",
        "group": "iridium-33-debris",
        "lat": -60.09232351342943,
        "lon": -32.61338157855406,
        "alt_km": 682.3783073373879,
        "timestamp": "2025-12-26T16:33:55.955986+00:00",
        "meta_object_name": "IRIDIUM 33 DEB",
        "meta_object_id": "1997-051KD",
        "meta_epoch": "2025-12-25T04:47:40.914240",
        "meta_mean_motion": 14.62168979,
        "meta_eccentricity": 0.0025437,
        "meta_inclination": 86.3321,
        "meta_ra_of_asc_node": 334.4529,
        "meta_arg_of_pericenter": 252.4347,
        "meta_mean_anomaly": 126.6927,
        "meta_ephemeris_type": 0,
        "meta_classification_type": "U",
        "meta_norad_cat_id": 34652,
        "meta_element_set_no": 999,
        "meta_rev_at_epoch": 88666,
        "meta_bstar": 0.0010092,
        "meta_mean_motion_dot": 5.122e-05,
        "meta_mean_motion_ddot": 0,
        "tle_line1": "1 34652U 97051KD  25359.19977910  .00005122  00000+0  10092-2 0  9992",
        "tle_line2": "2 34652  86.3321 334.4529 0025437 252.4347 126.6927 14.62168979886663"
      },
      "geometry": {
        "type": "Point",
        "coordinates": [
          -32.61338157855406,
          -60.09232351342943
        ]
      }
    },
    {
      "type": "Feature",
      "properties": {
        "norad_id": 34690,
        "name": "IRIDIUM 33 DEB",
        "group": "iridium-33-debris",
        "lat": 8.53462882871972,
        "lon": -149.61745552367256,
        "alt_km": 717.3133228880479,
        "timestamp": "2025-12-26T16:33:55.955995+00:00",
        "meta_object_name": "IRIDIUM 33 DEB",
        "meta_object_id": "1997-051KM",
        "meta_epoch": "2025-12-26T01:03:16.116192",
        "meta_mean_motion": 14.55142163,
        "meta_eccentricity": 0.00093058,
        "meta_inclination": 86.3773,
        "meta_ra_of_asc_node": 31.2082,
        "meta_arg_of_pericenter": 344.5785,
        "meta_mean_anomaly": 43.326,
        "meta_ephemeris_type": 0,
        "meta_classification_type": "U",
        "meta_norad_cat_id": 34690,
        "meta_element_set_no": 999,
        "meta_rev_at_epoch": 88288,
        "meta_bstar": 0.00040777266,
        "meta_mean_motion_dot": 1.782e-05,
        "meta_mean_motion_ddot": 0,
        "tle_line1": "1 34690U 97051KM  25360.04393653  .00001782  00000+0  40777-3 0  9998",
        "tle_line2": "2 34690  86.3773  31.2082 0009305 344.5785  43.3260 14.55142163882881"
      },
      "geometry": {
        "type": "Point",
        "coordinates": [
          -149.61745552367256,
          8.53462882871972
        ]
      }
    },
    {
      "type": "Feature",
      "properties": {
        "norad_id": 34693,
        "name": "IRIDIUM 33 DEB",
        "group": "iridium-33-debris",
        "lat": -4.834426030474112,
        "lon": -63.43565070611562,
        "alt_km": 469.8063392119002,
        "timestamp": "2025-12-26T16:33:55.956005+00:00",
        "meta_object_name": "IRIDIUM 33 DEB",
        "meta_object_id": "1997-051KQ",
        "meta_epoch": "2025-12-26T01:27:45.722304",
        "meta_mean_motion": 15.31326155,
        "meta_eccentricity": 0.00092905,
        "meta_inclination": 86.3048,
        "meta_ra_of_asc_node": 297.1918,
        "meta_arg_of_pericenter": 31.3326,
        "meta_mean_anomaly": 97.0934,
        "meta_ephemeris_type": 0,
        "meta_classification_type": "U",
        "meta_norad_cat_id": 34693,
        "meta_element_set_no": 999,
        "meta_rev_at_epoch": 89118,
        "meta_bstar": 0.0045759793,
        "meta_mean_motion_dot": 0.00140905,
        "meta_mean_motion_ddot": 0,
        "tle_line1": "1 34693U 97051KQ  25360.06094586  .00140905  00000+0  45760-2 0  9993",
        "tle_line2": "2 34693  86.3048 297.1918 0009290  31.3326  97.0934 15.31326155891182"
      },
      "geometry": {
        "type": "Point",
        "coordinates": [
          -63.43565070611562,
          -4.834426030474112
        ]
      }
    },
    {
      "type": "Feature",
      "properties": {
        "norad_id": 34696,
        "name": "IRIDIUM 33 DEB",
        "group": "iridium-33-debris",
        "lat": 73.18081344597809,
        "lon": -171.7227958040351,
        "alt_km": 617.2425471536199,
        "timestamp": "2025-12-26T16:33:55.956014+00:00",
        "meta_object_name": "IRIDIUM 33 DEB",
        "meta_object_id": "1997-051KT",
        "meta_epoch": "2025-12-26T01:36:24.067008",
        "meta_mean_motion": 14.65708991,
        "meta_eccentricity": 0.00738933,
        "meta_inclination": 86.1852,
        "meta_ra_of_asc_node": 21.3194,
        "meta_arg_of_pericenter": 122.6811,
        "meta_mean_anomaly": 297.1917,
        "meta_ephemeris_type": 0,
        "meta_classification_type": "U",
        "meta_norad_cat_id": 34696,
        "meta_element_set_no": 999,
        "meta_rev_at_epoch": 86868,
        "meta_bstar": 0.0037727771,
        "meta_mean_motion_dot": 0.00021447,
        "meta_mean_motion_ddot": 0,
        "tle_line1": "1 34696U 97051KT  25360.06694522  .00021447  00000+0  37728-2 0  9996",
        "tle_line2": "2 34696  86.1852  21.3194 0073893 122.6811 297.1917 14.65708991868683"
      },
      "geometry": {
        "type": "Point",
        "coordinates": [
          -171.7227958040351,
          73.18081344597809
        ]
      }
    },
    {
      "type": "Feature",
      "properties": {
        "norad_id": 34765,
        "name": "IRIDIUM 33 DEB",
        "group": "iridium-33-debris",
        "lat": -6.205495252384731,
        "lon": -152.8267601583578,
        "alt_km": 749.3988255380764,
        "timestamp": "2025-12-26T16:33:55.956023+00:00",
        "meta_object_name": "IRIDIUM 33 DEB",
        "meta_object_id": "1997-051LJ",
        "meta_epoch": "2025-12-26T02:40:33.184416",
        "meta_mean_motion": 14.40497452,
        "meta_eccentricity": 0.00169729,
        "meta_inclination": 86.3379,
        "meta_ra_of_asc_node": 27.0226,
        "meta_arg_of_pericenter": 166.6572,
        "meta_mean_anomaly": 260.0722,
        "meta_ephemeris_type": 0,
        "meta_classification_type": "U",
        "meta_norad_cat_id": 34765,
        "meta_element_set_no": 999,
        "meta_rev_at_epoch": 87806,
        "meta_bstar": 0.00037005237,
        "meta_mean_motion_dot": 1.198e-05,
        "meta_mean_motion_ddot": 0,
        "tle_line1": "1 34765U 97051LJ  25360.11149519  .00001198  00000+0  37005-3 0  9990",
        "tle_line2": "2 34765  86.3379  27.0226 0016972 166.6572 260.0722 14.40497452878068"
      },
      "geometry": {
        "type": "Point",
        "coordinates": [
          -152.8267601583578,
          -6.205495252384731
        ]
      }
    }
  ]
}